{"type":"Feature","properties":{"MUN":"BELMAR BORO","COUNTY":"MONMOUTH","MUN_LABEL":"Belmar Borough","MUN_TYPE":"Borough","NAME":"Belmar Borough","GNIS_NAME":"Borough of Belmar"},"geometry":{"type":"Polygon","coordinates":[[[-74.0305025,40.1889002],[-74.0300001,40.1887823],[-74.0290515,40.1886104],[-74.0285303,40.1885122],[-74.0281589,40.1884202],[-74.0282623,40.1881456],[-74.0284614,40.1881898],[-74.0286139,40.1882237],[-74.0287337,40.1882503],[-74.0288515,40.1882759],[-74.0289094,40.1882808],[-74.0289505,40.1882786],[-74.0290131,40.1882567],[-74.0290269,40.1882462],[-74.02903,40.1882299],[-74.0290256,40.1882112],[-74.0290288,40.1881937],[-74.0290426,40.1881797],[-74.0290701,40.1881646],[-74.0291037,40.1881473],[-74.0292155,40.1880625],[-74.0292584,40.1880171],[-74.0293491,40.1879006],[-74.0293865,40.1878578],[-74.0294659,40.1877388],[-74.0295133,40.1876366],[-74.0295143,40.1876329],[-74.0295863,40.1875123],[-74.0296496,40.1873973],[-74.0297022,40.1873412],[-74.0297433,40.1872988],[-74.0297582,40.1872688],[-74.0297633,40.1872376],[-74.029757,40.1872062],[-74.0297474,40.1871787],[-74.0297215,40.1871523],[-74.0297135,40.1871439],[-74.0297037,40.1871334],[-74.0297005,40.1871184],[-74.0297104,40.1871047],[-74.0297284,40.1870985],[-74.0297314,40.1870966],[-74.029771,40.1870724],[-74.0297834,40.1870499],[-74.0297885,40.1870211],[-74.0297986,40.1869811],[-74.029825,40.1869324],[-74.0298547,40.1868912],[-74.0298745,40.1868525],[-74.0299009,40.18682],[-74.029932,40.1868076],[-74.0299467,40.1867964],[-74.0299501,40.1867802],[-74.0299437,40.1867601],[-74.0299226,40.18675],[-74.0299015,40.1867337],[-74.0298978,40.1867261],[-74.0298934,40.1867173],[-74.0298919,40.1866986],[-74.0299002,40.1866811],[-74.0299183,40.1866686],[-74.0299413,40.1866449],[-74.0299562,40.186615],[-74.0299605,40.1865824],[-74.0299672,40.1865574],[-74.0299836,40.1865412],[-74.030023,40.1865113],[-74.0300292,40.1865049],[-74.030046,40.1864876],[-74.0300791,40.1864164],[-74.0301104,40.1863752],[-74.0301286,40.1863365],[-74.0301305,40.186309],[-74.0301275,40.1862664],[-74.030111,40.1861687],[-74.0301131,40.1861111],[-74.0301216,40.1860561],[-74.030145,40.1859823],[-74.0301719,40.185866],[-74.0302065,40.1857741],[-74.0302566,40.185711],[-74.0303221,40.1856585],[-74.0303578,40.18562],[-74.0303787,40.1855601],[-74.0303943,40.1854545],[-74.030403,40.1852675],[-74.0304147,40.1851989],[-74.0304208,40.1851783],[-74.0305348,40.1847967],[-74.0306253,40.1845303],[-74.0306298,40.1845171],[-74.0306532,40.1843601],[-74.030671,40.1842887],[-74.0306724,40.1842831],[-74.0306953,40.1842032],[-74.0307179,40.1841647],[-74.0307399,40.1841362],[-74.0307498,40.1841234],[-74.0307668,40.1840935],[-74.0307746,40.1840393],[-74.0307772,40.1840112],[-74.0307827,40.1839522],[-74.0308169,40.1838523],[-74.0308606,40.183724],[-74.0308664,40.1836954],[-74.0308666,40.1836654],[-74.030852,40.1836225],[-74.0308116,40.1835395],[-74.0307693,40.1834594],[-74.0307285,40.1834307],[-74.0306534,40.1833839],[-74.0306028,40.1833442],[-74.0305044,40.1832612],[-74.0303636,40.1831578],[-74.0302968,40.1831218],[-74.0302206,40.183093],[-74.0301593,40.1830727],[-74.0301111,40.1830468],[-74.029974,40.182942],[-74.0298815,40.1828645],[-74.0298258,40.1828257],[-74.0297943,40.1828156],[-74.0297088,40.1827938],[-74.0296361,40.182795],[-74.0295504,40.1828075],[-74.0294496,40.1828385],[-74.0293216,40.1829087],[-74.0291457,40.1830236],[-74.0289651,40.183165],[-74.0285753,40.1835219],[-74.0279521,40.1841071],[-74.0279222,40.1841227],[-74.027898,40.1841226],[-74.0278813,40.1841139],[-74.0278535,40.1840938],[-74.0277167,40.1842189],[-74.0270978,40.1847623],[-74.0270661,40.1847901],[-74.0267886,40.1850646],[-74.0267197,40.1851111],[-74.0266183,40.1851796],[-74.0265267,40.1852392],[-74.0264146,40.1852887],[-74.0262728,40.1853253],[-74.026223,40.1853329],[-74.0261567,40.1853601],[-74.0260466,40.1853854],[-74.025974,40.1853947],[-74.0259385,40.1853992],[-74.0259224,40.1853991],[-74.0259031,40.1853991],[-74.0258585,40.1853889],[-74.0257935,40.1853601],[-74.0257308,40.1853419],[-74.0257285,40.1853412],[-74.0257055,40.1853338],[-74.0259549,40.1846477],[-74.0259434,40.1846464],[-74.0258303,40.1846505],[-74.0257052,40.1846637],[-74.02558,40.1846906],[-74.0254547,40.1847312],[-74.02491,40.1849328],[-74.0243403,40.1851242],[-74.0238224,40.1853226],[-74.0235927,40.1853947],[-74.023127,40.1855982],[-74.0221535,40.1860416],[-74.0212172,40.1864777],[-74.0211518,40.1865157],[-74.0203068,40.186932],[-74.020024,40.1870647],[-74.0197574,40.1872203],[-74.0193327,40.1873995],[-74.0192046,40.1874538],[-74.0190493,40.1875117],[-74.0189351,40.1875362],[-74.0182454,40.1876614],[-74.0175768,40.1877387],[-74.0167522,40.1877593],[-74.0160948,40.1877325],[-74.0154272,40.1876897],[-74.01501,40.1876479],[-74.0146032,40.1876062],[-74.0141863,40.1875324],[-74.0140776,40.1875111],[-74.0139921,40.1874757],[-74.0138868,40.1874459],[-74.0136786,40.1874098],[-74.01323,40.1873627],[-74.0128402,40.1873338],[-74.0124503,40.1873322],[-74.0119658,40.1873483],[-74.0117056,40.1873834],[-74.0113153,40.1874452],[-74.0112254,40.1874684],[-74.0111241,40.1875106],[-74.011118,40.1875115],[-74.0109403,40.1875427],[-74.0106585,40.1875496],[-74.0103768,40.1875323],[-74.0102289,40.1875104],[-74.0100765,40.1874811],[-74.0097427,40.1874169],[-74.0093494,40.1873516],[-74.0086113,40.1872001],[-74.007849,40.1870433],[-74.0075903,40.1870041],[-74.0072809,40.1864557],[-74.0072717,40.1864356],[-74.00727,40.1864114],[-74.0072813,40.1863914],[-74.0073056,40.1863844],[-74.0073577,40.1863875],[-74.0074376,40.1864121],[-74.0075008,40.1864281],[-74.0075511,40.1864283],[-74.007607,40.1864171],[-74.0076706,40.1863802],[-74.0077455,40.1863205],[-74.0077962,40.1862722],[-74.0079659,40.1860994],[-74.0081444,40.1858774],[-74.0082795,40.1857451],[-74.008426,40.1855701],[-74.0085671,40.1853764],[-74.0086632,40.1852112],[-74.0089014,40.1848458],[-74.009054,40.184598],[-74.0092344,40.1842395],[-74.0094127,40.1839197],[-74.0098893,40.1829034],[-74.01039,40.1818929],[-74.0105726,40.181483],[-74.0106659,40.1812092],[-74.0109155,40.180669],[-74.0112485,40.1799391],[-74.0115007,40.1793047],[-74.0115502,40.1791535],[-74.0115738,40.1789708],[-74.0115673,40.1788451],[-74.0115459,40.1787164],[-74.0115427,40.1786421],[-74.0115021,40.1783206],[-74.0114767,40.1782377],[-74.0114398,40.178189],[-74.0114177,40.1781575],[-74.0113547,40.1781115],[-74.0113102,40.1780827],[-74.0113001,40.1780634],[-74.011304,40.1780434],[-74.0113283,40.1780235],[-74.0113712,40.1780123],[-74.0114682,40.177987],[-74.0116214,40.1779177],[-74.0117075,40.1778609],[-74.0118051,40.1777485],[-74.0119067,40.1775961],[-74.012221,40.1769997],[-74.0125738,40.1763513],[-74.0127129,40.1761748],[-74.0129143,40.1758686],[-74.0129601,40.1757146],[-74.0130134,40.1755463],[-74.0130968,40.1753381],[-74.0131122,40.1752725],[-74.0131166,40.1751782],[-74.0130989,40.1750525],[-74.013054,40.1748166],[-74.01304,40.1746937],[-74.0130442,40.1746309],[-74.0130745,40.1745596],[-74.0132699,40.1743034],[-74.0135223,40.1738988],[-74.013815,40.1733216],[-74.0139833,40.1729638],[-74.0140329,40.172787],[-74.0140299,40.1726927],[-74.0140082,40.1725955],[-74.0139717,40.1724925],[-74.013939,40.1723838],[-74.0139069,40.1721809],[-74.0139073,40.1721237],[-74.0139394,40.1720625],[-74.0139731,40.1720369],[-74.014048,40.1719801],[-74.0142016,40.1718408],[-74.0143634,40.1716129],[-74.0144465,40.1714447],[-74.0146956,40.1709773],[-74.0149956,40.1704144],[-74.0152002,40.1699269],[-74.0153085,40.1696088],[-74.0153353,40.1695032],[-74.0153326,40.1693661],[-74.0152979,40.1690146],[-74.0152836,40.1689232],[-74.0152914,40.1688832],[-74.0153103,40.1688433],[-74.015466,40.1686654],[-74.0156805,40.168355],[-74.0158691,40.1680101],[-74.0160154,40.1676008],[-74.016069,40.1674669],[-74.017861,40.1671832],[-74.020533,40.1691612],[-74.0209116,40.1694452],[-74.0196661,40.1729442],[-74.0292115,40.1749804],[-74.0293479,40.1746015],[-74.0293554,40.1745807],[-74.0299574,40.174698],[-74.0357298,40.1751372],[-74.041538,40.1761332],[-74.0422957,40.1779655],[-74.0505722,40.1830052],[-74.0484828,40.1851498],[-74.0467767,40.184003],[-74.0453705,40.1831818],[-74.0445225,40.1827631],[-74.0437514,40.1824042],[-74.0416824,40.1815396],[-74.0416039,40.1815241],[-74.0415348,40.1815111],[-74.0414723,40.1815],[-74.0414149,40.1814906],[-74.0413608,40.1814826],[-74.0413092,40.1814759],[-74.0412593,40.1814704],[-74.0412099,40.1814659],[-74.0411606,40.1814624],[-74.0411102,40.1814598],[-74.0410577,40.1814581],[-74.0410019,40.1814571],[-74.0409422,40.181457],[-74.0408762,40.1814576],[-74.0408017,40.181459],[-74.040714,40.1814613],[-74.0406165,40.1814645],[-74.0405183,40.1814683],[-74.0404196,40.1814727],[-74.0403202,40.1814778],[-74.0402203,40.1814836],[-74.0401196,40.18149],[-74.0400183,40.1814971],[-74.0399164,40.1815048],[-74.0398137,40.1815132],[-74.0397103,40.1815222],[-74.0396062,40.1815319],[-74.0395013,40.1815423],[-74.0393956,40.1815533],[-74.0392891,40.181565],[-74.0391818,40.1815774],[-74.0390736,40.1815905],[-74.0389648,40.1816042],[-74.0388551,40.1816185],[-74.0387444,40.1816336],[-74.0386327,40.1816493],[-74.03852,40.1816658],[-74.0384061,40.1816829],[-74.038291,40.1817008],[-74.0381747,40.1817194],[-74.0380572,40.1817387],[-74.0379383,40.1817588],[-74.037818,40.1817796],[-74.037696,40.1818012],[-74.0375724,40.1818236],[-74.037447,40.1818468],[-74.0373196,40.1818709],[-74.0371901,40.1818958],[-74.0371429,40.1819044],[-74.0370363,40.1819222],[-74.0369897,40.1819309],[-74.0369616,40.1819368],[-74.0369357,40.181943],[-74.0369116,40.1819494],[-74.0368888,40.1819563],[-74.036865,40.1819643],[-74.0368405,40.1819732],[-74.0368152,40.1819831],[-74.0367888,40.1819941],[-74.0367618,40.1820061],[-74.0367327,40.1820195],[-74.0366588,40.1820552],[-74.0366275,40.1820711],[-74.0365966,40.1820878],[-74.0365661,40.1821054],[-74.036536,40.1821237],[-74.0365062,40.1821429],[-74.0364767,40.182163],[-74.0364476,40.1821839],[-74.0364188,40.1822057],[-74.0363904,40.1822283],[-74.0363621,40.1822518],[-74.0363342,40.1822763],[-74.0363064,40.1823017],[-74.0362789,40.1823281],[-74.0362515,40.1823554],[-74.0362243,40.1823838],[-74.0361971,40.1824133],[-74.0361729,40.1824405],[-74.0361487,40.1824687],[-74.0361244,40.1824979],[-74.0361,40.1825281],[-74.0360754,40.1825595],[-74.0360505,40.1825922],[-74.0360252,40.1826263],[-74.0359993,40.1826621],[-74.0359583,40.1827204],[-74.0359141,40.1827853],[-74.0358687,40.1828532],[-74.0357466,40.1830383],[-74.0357092,40.1830938],[-74.0356754,40.183143],[-74.0356205,40.1832229],[-74.0355675,40.183303],[-74.0355163,40.1833832],[-74.0354669,40.1834634],[-74.0354195,40.1835435],[-74.0353739,40.1836235],[-74.0353303,40.1837035],[-74.0352887,40.1837833],[-74.035249,40.1838628],[-74.0352114,40.1839422],[-74.0351758,40.1840213],[-74.0351422,40.1841],[-74.0351106,40.1841785],[-74.0350811,40.1842566],[-74.0350537,40.1843344],[-74.0350283,40.1844118],[-74.0350059,40.1844838],[-74.0349869,40.1845478],[-74.0349702,40.1846073],[-74.0349555,40.1846634],[-74.0349424,40.1847174],[-74.034931,40.1847692],[-74.0349213,40.1848192],[-74.0349131,40.1848676],[-74.0349095,40.1848931],[-74.0349067,40.1849191],[-74.0349045,40.1849456],[-74.0349031,40.1849727],[-74.0349024,40.1850004],[-74.0349023,40.1850289],[-74.034903,40.1850582],[-74.0349043,40.1850885],[-74.0349064,40.18512],[-74.0349092,40.185153],[-74.0349128,40.1851875],[-74.0349172,40.1852243],[-74.0349276,40.1852998],[-74.0349507,40.1854505],[-74.0349598,40.1855139],[-74.0349682,40.1855802],[-74.034974,40.1856396],[-74.0349765,40.1856745],[-74.0349781,40.185708],[-74.0349788,40.1857404],[-74.0349788,40.1857717],[-74.0349778,40.1858022],[-74.034976,40.1858319],[-74.0349734,40.1858609],[-74.0349699,40.1858893],[-74.0349604,40.1859534],[-74.0349504,40.1860142],[-74.0349399,40.1860724],[-74.0349287,40.1861284],[-74.0349169,40.1861826],[-74.0349043,40.1862349],[-74.0348909,40.1862856],[-74.0348768,40.1863347],[-74.0348617,40.1863826],[-74.0348458,40.186429],[-74.0348291,40.1864741],[-74.0348114,40.1865179],[-74.0347929,40.1865603],[-74.0347734,40.1866015],[-74.0347531,40.1866415],[-74.0347318,40.1866802],[-74.0347093,40.1867178],[-74.0346847,40.1867556],[-74.0346578,40.1867937],[-74.0346287,40.1868321],[-74.0345972,40.1868709],[-74.0345633,40.1869104],[-74.0345267,40.1869508],[-74.0344872,40.1869922],[-74.0344524,40.1870272],[-74.0344152,40.1870635],[-74.0343751,40.1871014],[-74.0343315,40.1871417],[-74.0342488,40.1872157],[-74.0340486,40.187392],[-74.0339959,40.1874394],[-74.0339493,40.1874824],[-74.0338964,40.1875329],[-74.0337633,40.1876627],[-74.0337244,40.1876995],[-74.0336886,40.187732],[-74.0336462,40.1877689],[-74.0336053,40.1878024],[-74.0335651,40.1878331],[-74.0335253,40.1878612],[-74.0334841,40.1878882],[-74.0334368,40.187917],[-74.0333911,40.1879436],[-74.0332752,40.1880097],[-74.0331797,40.1880655],[-74.0329348,40.1882096],[-74.0327994,40.188288],[-74.0327247,40.1883302],[-74.0326544,40.188369],[-74.0325872,40.1884052],[-74.0325224,40.1884392],[-74.0324527,40.1884745],[-74.0323847,40.1885077],[-74.0323182,40.188539],[-74.0322528,40.1885683],[-74.0321882,40.1885959],[-74.0321244,40.1886219],[-74.0320612,40.1886462],[-74.0319984,40.1886689],[-74.0319189,40.1886963],[-74.0318497,40.1887192],[-74.0317857,40.1887392],[-74.0317255,40.1887567],[-74.031653,40.1887763],[-74.0315799,40.1887944],[-74.0315063,40.1888112],[-74.0314322,40.1888265],[-74.0313576,40.1888404],[-74.0312824,40.1888529],[-74.0312068,40.188864],[-74.0311306,40.1888736],[-74.0310539,40.1888819],[-74.0309767,40.1888887],[-74.0308989,40.1888942],[-74.0308207,40.1888982],[-74.0307419,40.1889008],[-74.0306626,40.188902],[-74.0305828,40.1889018],[-74.0305025,40.1889002]]]}}
